[{"OBJECT_NAME":"KUIPER-00070","OBJECT_ID":"2025-151B","EPOCH":"2026-03-09T20:32:33.833760","MEAN_MOTION":14.799361,"ECCENTRICITY":9.451e-5,"INCLINATION":51.9,"RA_OF_ASC_NODE":304.8248,"ARG_OF_PERICENTER":102.7727,"MEAN_ANOMALY":257.3341,"EPHEMERIS_TYPE":0,"CLASSIFICATION_TYPE":"U","NORAD_CAT_ID":64817,"ELEMENT_SET_NO":999,"REV_AT_EPOCH":3644,"BSTAR":0.00022632458,"MEAN_MOTION_DOT":1.505e-5,"MEAN_MOTION_DDOT":0},{"OBJECT_NAME":"SL-14 R\/B","OBJECT_ID":"1985-058B","EPOCH":"2026-03-09T17:05:08.172096","MEAN_MOTION":14.85781539,"ECCENTRICITY":0.00210646,"INCLINATION":82.5282,"RA_OF_ASC_NODE":154.9342,"ARG_OF_PERICENTER":138.8618,"MEAN_ANOMALY":221.4192,"EPHEMERIS_TYPE":0,"CLASSIFICATION_TYPE":"U","NORAD_CAT_ID":15890,"ELEMENT_SET_NO":999,"REV_AT_EPOCH":17646,"BSTAR":7.1757705e-5,"MEAN_MOTION_DOT":6.5e-6,"MEAN_MOTION_DDOT":0}]
